[{"OBJECT_NAME":"CELESTIS-02 & TAURUS R\/B","OBJECT_ID":"1998-007D","EPOCH":"2026-03-09T22:56:59.337312","MEAN_MOTION":14.22453237,"ECCENTRICITY":0.00634235,"INCLINATION":108.0072,"RA_OF_ASC_NODE":131.996,"ARG_OF_PERICENTER":301.5817,"MEAN_ANOMALY":134.6877,"EPHEMERIS_TYPE":0,"CLASSIFICATION_TYPE":"U","NORAD_CAT_ID":25160,"ELEMENT_SET_NO":999,"REV_AT_EPOCH":45640,"BSTAR":6.4821117e-5,"MEAN_MOTION_DOT":1.8e-7,"MEAN_MOTION_DDOT":0},{"OBJECT_NAME":"COSMOS 2251 DEB","OBJECT_ID":"1993-036TM","EPOCH":"2026-03-09T18:39:07.016256","MEAN_MOTION":14.47853734,"ECCENTRICITY":0.00740056,"INCLINATION":74.0135,"RA_OF_ASC_NODE":314.1127,"ARG_OF_PERICENTER":77.8493,"MEAN_ANOMALY":283.0944,"EPHEMERIS_TYPE":0,"CLASSIFICATION_TYPE":"U","NORAD_CAT_ID":34468,"ELEMENT_SET_NO":999,"REV_AT_EPOCH":89721,"BSTAR":0.00030876492,"MEAN_MOTION_DOT":1.155e-5,"MEAN_MOTION_DDOT":0}]
